SPAWAR-CAL-O            
1 43766U 18099J   26068.73975788  .00021069  00000+0  69663-3 0  9999
2 43766  97.4452 132.0993 0007239 285.0670  74.9770 15.31356755398280
STARLINK-1153           
1 45080U 20006AN  26068.80847146 -.00004860  00000+0 -15625-3 0  9996
2 45080  53.1601 257.2166 0000819  65.4906 294.6179 15.29349548336899
